[{"OBJECT_NAME":"SWARM C","OBJECT_ID":"2013-067C","EPOCH":"2026-03-09T21:59:52.664928","MEAN_MOTION":15.4875685,"ECCENTRICITY":0.00030726,"INCLINATION":87.3287,"RA_OF_ASC_NODE":91.6553,"ARG_OF_PERICENTER":94.2355,"MEAN_ANOMALY":265.9256,"EPHEMERIS_TYPE":0,"CLASSIFICATION_TYPE":"U","NORAD_CAT_ID":39453,"ELEMENT_SET_NO":999,"REV_AT_EPOCH":69083,"BSTAR":0.00023321398,"MEAN_MOTION_DOT":0.00012548,"MEAN_MOTION_DDOT":0},{"OBJECT_NAME":"RTU MIREA 1 (RS51S)","OBJECT_ID":"2024-199BC","EPOCH":"2026-03-09T22:14:17.596320","MEAN_MOTION":15.51490402,"ECCENTRICITY":0.00083773,"INCLINATION":97.3113,"RA_OF_ASC_NODE":303.4357,"ARG_OF_PERICENTER":287.8699,"MEAN_ANOMALY":72.1639,"EPHEMERIS_TYPE":0,"CLASSIFICATION_TYPE":"U","NORAD_CAT_ID":61785,"ELEMENT_SET_NO":999,"REV_AT_EPOCH":11903,"BSTAR":0.00088358128,"MEAN_MOTION_DOT":0.00052439,"MEAN_MOTION_DDOT":0}]
